NESS                    
1 58020U 23155E   26068.76452457  .00019469  00000+0  74047-3 0  9996
2 58020  97.5941 152.6141 0006891 179.8776 180.2465 15.26794015133307
STARLINK-31472          
1 59730U 24090A   26068.31878452  .00000131  00000+0  14293-4 0  9996
2 59730  43.0050 185.5732 0001429 180.4350 179.6500 15.27562133103384
